{"type": "FeatureCollection", "features": [ {"type": "Feature", "properties": {"norad_id": 30689, "name": "FENGYUN 1C DEB", "group": "fengyun-1c-debris", "lat": 43.16365612216062, "lon": -41.154879333929465, "alt_km": 829.9871313780841, "timestamp": "2025-12-06T16:45:43.000087+00:00", "meta": {"OBJECT_NAME": "FENGYUN 1C DEB", "OBJECT_ID": "1999-025AQX", "EPOCH": "2025-12-06T04:56:32.255232", "MEAN_MOTION": 14.11753091, "ECCENTRICITY": 0.01116038, "INCLINATION": 98.7077, "RA_OF_ASC_NODE": 326.631, "ARG_OF_PERICENTER": 121.7298, "MEAN_ANOMALY": 301.8186, "EPHEMERIS_TYPE": 0, "CLASSIFICATION_TYPE": "U", "NORAD_CAT_ID": 30689, "ELEMENT_SET_NO": 999, "REV_AT_EPOCH": 96798, "BSTAR": 0.00057269311, "MEAN_MOTION_DOT": 1.065e-05, "MEAN_MOTION_DDOT": 0}, "tle": {"line1": "1 30689U 99025AQX 25340.20592888  .00001065  00000+0  57269-3 0  9990", "line2": "2 30689  98.7077 326.6310 0111603 121.7298 301.8186 14.11753091967987"}}, "geometry": {"type": "Point", "coordinates": [-41.154879333929465, 43.16365612216062]}}, {"type": "Feature", "properties": {"norad_id": 30690, "name": "FENGYUN 1C DEB", "group": "fengyun-1c-debris", "lat": -61.90376271066741, "lon": -71.34491792418466, "alt_km": 962.1660561614672, "timestamp": "2025-12-06T16:45:43.000097+00:00", "meta": {"OBJECT_NAME": "FENGYUN 1C DEB", "OBJECT_ID": "1999-025AQY", "EPOCH": "2025-12-05T19:04:11.005248", "MEAN_MOTION": 14.02284552, "ECCENTRICITY": 0.01046177, "INCLINATION": 99.1595, "RA_OF_ASC_NODE": 270.1564, "ARG_OF_PERICENTER": 94.9859, "MEAN_ANOMALY": 321.9265, "EPHEMERIS_TYPE": 0, "CLASSIFICATION_TYPE": "U", "NORAD_CAT_ID": 30690, "ELEMENT_SET_NO": 999, "REV_AT_EPOCH": 95610, "BSTAR": 0.0021074709, "MEAN_MOTION_DOT": 3.346e-05, "MEAN_MOTION_DDOT": 0}, "tle": {"line1": "1 30690U 99025AQY 25339.79457182  .00003346  00000+0  21075-2 0  9990", "line2": "2 30690  99.1595 270.1564 0104617  94.9859 321.9265 14.02284552956108"}}, "geometry": {"type": "Point", "coordinates": [-71.34491792418466, -61.90376271066741]}}, {"type": "Feature", "properties": {"norad_id": 30691, "name": "FENGYUN 1C DEB", "group": "fengyun-1c-debris", "lat": -32.52987281444422, "lon": 166.8402471555995, "alt_km": 854.8769522652892, "timestamp": "2025-12-06T16:45:43.000108+00:00", "meta": {"OBJECT_NAME": "FENGYUN 1C DEB", "OBJECT_ID": "1999-025AQZ", "EPOCH": "2025-12-05T12:49:07.910112", "MEAN_MOTION": 13.8940125, "ECCENTRICITY": 0.01391324, "INCLINATION": 98.7425, "RA_OF_ASC_NODE": 351.379, "ARG_OF_PERICENTER": 252.9176, "MEAN_ANOMALY": 260.4408, "EPHEMERIS_TYPE": 0, "CLASSIFICATION_TYPE": "U", "NORAD_CAT_ID": 30691, "ELEMENT_SET_NO": 999, "REV_AT_EPOCH": 95016, "BSTAR": 0.0017336921, "MEAN_MOTION_DOT": 2.245e-05, "MEAN_MOTION_DDOT": 0}, "tle": {"line1": "1 30691U 99025AQZ 25339.53411933  .00002245  00000+0  17337-2 0  9990", "line2": "2 30691  98.7425 351.3790 0139132 252.9176 260.4408 13.89401250950163"}}, "geometry": {"type": "Point", "coordinates": [166.8402471555995, -32.52987281444422]}}, {"type": "Feature", "properties": {"norad_id": 30693, "name": "FENGYUN 1C DEB", "group": "fengyun-1c-debris", "lat": 9.503512383609817, "lon": 147.4696182922644, "alt_km": 829.4758100054969, "timestamp": "2025-12-06T16:45:43.000120+00:00", "meta": {"OBJECT_NAME": "FENGYUN 1C DEB", "OBJECT_ID": "1999-025ARB", "EPOCH": "2025-12-06T05:45:48.561696", "MEAN_MOTION": 14.13274961, "ECCENTRICITY": 0.00289865, "INCLINATION": 98.6856, "RA_OF_ASC_NODE": 325.5585, "ARG_OF_PERICENTER": 185.9824, "MEAN_ANOMALY": 174.1007, "EPHEMERIS_TYPE": 0, "CLASSIFICATION_TYPE": "U", "NORAD_CAT_ID": 30693, "ELEMENT_SET_NO": 999, "REV_AT_EPOCH": 96843, "BSTAR": 0.00055942818, "MEAN_MOTION_DOT": 1.01e-05, "MEAN_MOTION_DDOT": 0}, "tle": {"line1": "1 30693U 99025ARB 25340.24014539  .00001010  00000+0  55943-3 0  9998", "line2": "2 30693  98.6856 325.5585 0028986 185.9824 174.1007 14.13274961968436"}}, "geometry": {"type": "Point", "coordinates": [147.4696182922644, 9.503512383609817]}}, {"type": "Feature", "properties": {"norad_id": 30694, "name": "FENGYUN 1C DEB", "group": "fengyun-1c-debris", "lat": -78.99075316485448, "lon": 1.0485213349909885, "alt_km": 544.1108706093055, "timestamp": "2025-12-06T16:45:43.000130+00:00", "meta": {"OBJECT_NAME": "FENGYUN 1C DEB", "OBJECT_ID": "1999-025ARC", "EPOCH": "2025-12-05T10:25:39.539424", "MEAN_MOTION": 14.86095369, "ECCENTRICITY": 0.01319235, "INCLINATION": 99.0467, "RA_OF_ASC_NODE": 304.6306, "ARG_OF_PERICENTER": 318.2567, "MEAN_ANOMALY": 40.8637, "EPHEMERIS_TYPE": 0, "CLASSIFICATION_TYPE": "U", "NORAD_CAT_ID": 30694, "ELEMENT_SET_NO": 999, "REV_AT_EPOCH": 99993, "BSTAR": 0.0028471447, "MEAN_MOTION_DOT": 0.00029243, "MEAN_MOTION_DDOT": 0}, "tle": {"line1": "1 30694U 99025ARC 25339.43448541  .00029243  00000+0  28471-2 0  9995", "line2": "2 30694  99.0467 304.6306 0131923 318.2567  40.8637 14.86095369999930"}}, "geometry": {"type": "Point", "coordinates": [1.0485213349909885, -78.99075316485448]}}, {"type": "Feature", "properties": {"norad_id": 30696, "name": "FENGYUN 1C DEB", "group": "fengyun-1c-debris", "lat": 39.48979901709825, "lon": 22.80893049354163, "alt_km": 754.6123843541918, "timestamp": "2025-12-06T16:45:43.000141+00:00", "meta": {"OBJECT_NAME": "FENGYUN 1C DEB", "OBJECT_ID": "1999-025ARE", "EPOCH": "2025-12-06T01:45:06.494976", "MEAN_MOTION": 14.44700798, "ECCENTRICITY": 0.00899326, "INCLINATION": 98.3893, "RA_OF_ASC_NODE": 29.1763, "ARG_OF_PERICENTER": 145.7241, "MEAN_ANOMALY": 244.4776, "EPHEMERIS_TYPE": 0, "CLASSIFICATION_TYPE": "U", "NORAD_CAT_ID": 30696, "ELEMENT_SET_NO": 999, "REV_AT_EPOCH": 98208, "BSTAR": 0.0015221351, "MEAN_MOTION_DOT": 5.504e-05, "MEAN_MOTION_DDOT": 0}, "tle": {"line1": "1 30696U 99025ARE 25340.07299184  .00005504  00000+0  15221-2 0  9999", "line2": "2 30696  98.3893  29.1763 0089932 145.7241 244.4776 14.44700798982084"}}, "geometry": {"type": "Point", "coordinates": [22.80893049354163, 39.48979901709825]}}, {"type": "Feature", "properties": {"norad_id": 30697, "name": "FENGYUN 1C DEB", "group": "fengyun-1c-debris", "lat": 51.064798832632476, "lon": -131.2413053783598, "alt_km": 824.9005291363592, "timestamp": "2025-12-06T16:45:43.000152+00:00", "meta": {"OBJECT_NAME": "FENGYUN 1C DEB", "OBJECT_ID": "1999-025ARF", "EPOCH": "2025-12-06T02:42:11.448000", "MEAN_MOTION": 14.1345935, "ECCENTRICITY": 0.00878953, "INCLINATION": 98.9069, "RA_OF_ASC_NODE": 36.9832, "ARG_OF_PERICENTER": 203.791, "MEAN_ANOMALY": 186.0988, "EPHEMERIS_TYPE": 0, "CLASSIFICATION_TYPE": "U", "NORAD_CAT_ID": 30697, "ELEMENT_SET_NO": 999, "REV_AT_EPOCH": 96167, "BSTAR": 0.0027584469, "MEAN_MOTION_DOT": 5.341e-05, "MEAN_MOTION_DDOT": 0}, "tle": {"line1": "1 30697U 99025ARF 25340.11263250  .00005341  00000+0  27584-2 0  9994", "line2": "2 30697  98.9069  36.9832 0087895 203.7910 186.0988 14.13459350961672"}}, "geometry": {"type": "Point", "coordinates": [-131.2413053783598, 51.064798832632476]}}, {"type": "Feature", "properties": {"norad_id": 30699, "name": "FENGYUN 1C DEB", "group": "fengyun-1c-debris", "lat": -70.75565744030807, "lon": -108.45706046869168, "alt_km": 740.8298559277, "timestamp": "2025-12-06T16:45:43.000163+00:00", "meta": {"OBJECT_NAME": "FENGYUN 1C DEB", "OBJECT_ID": "1999-025ARH", "EPOCH": "2025-12-05T06:23:57.311520", "MEAN_MOTION": 14.46741996, "ECCENTRICITY": 0.00037128, "INCLINATION": 99.3123, "RA_OF_ASC_NODE": 98.0055, "ARG_OF_PERICENTER": 270.8769, "MEAN_ANOMALY": 89.1995, "EPHEMERIS_TYPE": 0, "CLASSIFICATION_TYPE": "U", "NORAD_CAT_ID": 30699, "ELEMENT_SET_NO": 999, "REV_AT_EPOCH": 97505, "BSTAR": 0.00445373, "MEAN_MOTION_DOT": 0.000161, "MEAN_MOTION_DDOT": 0}, "tle": {"line1": "1 30699U 99025ARH 25339.26663555  .00016100  00000+0  44537-2 0  9994", "line2": "2 30699  99.3123  98.0055 0003712 270.8769  89.1995 14.46741996975053"}}, "geometry": {"type": "Point", "coordinates": [-108.45706046869168, -70.75565744030807]}}, {"type": "Feature", "properties": {"norad_id": 30700, "name": "FENGYUN 1C DEB", "group": "fengyun-1c-debris", "lat": 52.40368737093766, "lon": -159.55782412083624, "alt_km": 755.7644454408874, "timestamp": "2025-12-06T16:45:43.000173+00:00", "meta": {"OBJECT_NAME": "FENGYUN 1C DEB", "OBJECT_ID": "1999-025ARJ", "EPOCH": "2025-12-06T00:59:17.953728", "MEAN_MOTION": 14.23785162, "ECCENTRICITY": 0.00868268, "INCLINATION": 98.5423, "RA_OF_ASC_NODE": 8.5475, "ARG_OF_PERICENTER": 162.6805, "MEAN_ANOMALY": 197.7369, "EPHEMERIS_TYPE": 0, "CLASSIFICATION_TYPE": "U", "NORAD_CAT_ID": 30700, "ELEMENT_SET_NO": 999, "REV_AT_EPOCH": 97474, "BSTAR": 0.0003086956, "MEAN_MOTION_DOT": 6.92e-06, "MEAN_MOTION_DDOT": 0}, "tle": {"line1": "1 30700U 99025ARJ 25340.04118002  .00000692  00000+0  30870-3 0  9992", "line2": "2 30700  98.5423   8.5475 0086826 162.6805 197.7369 14.23785162974742"}}, "geometry": {"type": "Point", "coordinates": [-159.55782412083624, 52.40368737093766]}}, {"type": "Feature", "properties": {"norad_id": 30701, "name": "FENGYUN 1C DEB", "group": "fengyun-1c-debris", "lat": -4.260262575100996, "lon": 22.800816130498465, "alt_km": 863.5699396349928, "timestamp": "2025-12-06T16:45:43.000183+00:00", "meta": {"OBJECT_NAME": "FENGYUN 1C DEB", "OBJECT_ID": "1999-025ARK", "EPOCH": "2025-12-06T01:38:18.288672", "MEAN_MOTION": 14.13933876, "ECCENTRICITY": 0.00356039, "INCLINATION": 98.7192, "RA_OF_ASC_NODE": 21.5312, "ARG_OF_PERICENTER": 121.2342, "MEAN_ANOMALY": 269.1591, "EPHEMERIS_TYPE": 0, "CLASSIFICATION_TYPE": "U", "NORAD_CAT_ID": 30701, "ELEMENT_SET_NO": 999, "REV_AT_EPOCH": 97025, "BSTAR": 3.3367743e-05, "MEAN_MOTION_DOT": 2.1e-07, "MEAN_MOTION_DDOT": 0}, "tle": {"line1": "1 30701U 99025ARK 25340.06826723  .00000021  00000+0  33368-4 0  9993", "line2": "2 30701  98.7192  21.5312 0035603 121.2342 269.1591 14.13933876970256"}}, "geometry": {"type": "Point", "coordinates": [22.800816130498465, -4.260262575100996]}}]}